[{"OBJECT_NAME":"ONEWEB-0335","OBJECT_ID":"2021-083R","EPOCH":"2026-02-05T06:31:11.849088","MEAN_MOTION":13.13470601,"ECCENTRICITY":0.00019742,"INCLINATION":87.9024,"RA_OF_ASC_NODE":346.4572,"ARG_OF_PERICENTER":77.6424,"MEAN_ANOMALY":282.4926,"EPHEMERIS_TYPE":0,"CLASSIFICATION_TYPE":"U","NORAD_CAT_ID":49201,"ELEMENT_SET_NO":999,"REV_AT_EPOCH":21360,"BSTAR":-0.00068301092,"MEAN_MOTION_DOT":-2.37e-6,"MEAN_MOTION_DDOT":0},{"OBJECT_NAME":"ONEWEB-0336","OBJECT_ID":"2021-083S","EPOCH":"2026-02-04T20:41:17.789280","MEAN_MOTION":13.13470764,"ECCENTRICITY":0.00022319,"INCLINATION":87.9023,"RA_OF_ASC_NODE":346.535,"ARG_OF_PERICENTER":76.7475,"MEAN_ANOMALY":283.3903,"EPHEMERIS_TYPE":0,"CLASSIFICATION_TYPE":"U","NORAD_CAT_ID":49202,"ELEMENT_SET_NO":999,"REV_AT_EPOCH":21354,"BSTAR":0.00047575795,"MEAN_MOTION_DOT":1.86e-6,"MEAN_MOTION_DDOT":0},{"OBJECT_NAME":"ONEWEB-0337","OBJECT_ID":"2021-083T","EPOCH":"2026-02-05T06:04:11.221824","MEAN_MOTION":13.1346894,"ECCENTRICITY":0.00020135,"INCLINATION":87.902,"RA_OF_ASC_NODE":346.4687,"ARG_OF_PERICENTER":84.8463,"MEAN_ANOMALY":275.2896,"EPHEMERIS_TYPE":0,"CLASSIFICATION_TYPE":"U","NORAD_CAT_ID":49203,"ELEMENT_SET_NO":999,"REV_AT_EPOCH":21359,"BSTAR":-0.00021043505,"MEAN_MOTION_DOT":-6.4e-7,"MEAN_MOTION_DDOT":0},{"OBJECT_NAME":"ONEWEB-0338","OBJECT_ID":"2021-083U","EPOCH":"2026-02-05T03:34:28.893792","MEAN_MOTION":13.20770681,"ECCENTRICITY":0.00013994,"INCLINATION":87.9212,"RA_OF_ASC_NODE":300.812,"ARG_OF_PERICENTER":81.5655,"MEAN_ANOMALY":278.5637,"EPHEMERIS_TYPE":0,"CLASSIFICATION_TYPE":"U","NORAD_CAT_ID":49204,"ELEMENT_SET_NO":999,"REV_AT_EPOCH":21938,"BSTAR":0.00020728844,"MEAN_MOTION_DOT":9.7e-7,"MEAN_MOTION_DDOT":0},{"OBJECT_NAME":"ONEWEB-0339","OBJECT_ID":"2021-083V","EPOCH":"2026-02-05T06:16:35.328000","MEAN_MOTION":13.13469964,"ECCENTRICITY":0.00015704,"INCLINATION":87.9027,"RA_OF_ASC_NODE":346.4519,"ARG_OF_PERICENTER":86.6844,"MEAN_ANOMALY":273.4465,"EPHEMERIS_TYPE":0,"CLASSIFICATION_TYPE":"U","NORAD_CAT_ID":49205,"ELEMENT_SET_NO":999,"REV_AT_EPOCH":21357,"BSTAR":-0.00066086564,"MEAN_MOTION_DOT":-2.29e-6,"MEAN_MOTION_DDOT":0},{"OBJECT_NAME":"ONEWEB-0340","OBJECT_ID":"2021-083W","EPOCH":"2026-02-05T04:26:14.209152","MEAN_MOTION":13.18687163,"ECCENTRICITY":0.00018675,"INCLINATION":87.9218,"RA_OF_ASC_NODE":1.6571,"ARG_OF_PERICENTER":80.6726,"MEAN_ANOMALY":279.4617,"EPHEMERIS_TYPE":0,"CLASSIFICATION_TYPE":"U","NORAD_CAT_ID":49206,"ELEMENT_SET_NO":999,"REV_AT_EPOCH":21257,"BSTAR":-1.2361815e-5,"MEAN_MOTION_DOT":8.0e-8,"MEAN_MOTION_DDOT":0},{"OBJECT_NAME":"ONEWEB-0341","OBJECT_ID":"2021-083X","EPOCH":"2026-02-05T04:35:45.847968","MEAN_MOTION":13.18687204,"ECCENTRICITY":0.00021957,"INCLINATION":87.9216,"RA_OF_ASC_NODE":1.6663,"ARG_OF_PERICENTER":93.8688,"MEAN_ANOMALY":266.2695,"EPHEMERIS_TYPE":0,"CLASSIFICATION_TYPE":"U","NORAD_CAT_ID":49207,"ELEMENT_SET_NO":999,"REV_AT_EPOCH":21259,"BSTAR":-0.00013421187,"MEAN_MOTION_DOT":-4.0e-7,"MEAN_MOTION_DDOT":0},{"OBJECT_NAME":"ONEWEB-0342","OBJECT_ID":"2021-083Y","EPOCH":"2026-02-05T03:43:33.894624","MEAN_MOTION":13.20774374,"ECCENTRICITY":0.00015235,"INCLINATION":87.9221,"RA_OF_ASC_NODE":300.7856,"ARG_OF_PERICENTER":81.2377,"MEAN_ANOMALY":278.8929,"EPHEMERIS_TYPE":0,"CLASSIFICATION_TYPE":"U","NORAD_CAT_ID":49208,"ELEMENT_SET_NO":999,"REV_AT_EPOCH":21935,"BSTAR":5.2512898e-5,"MEAN_MOTION_DOT":3.4e-7,"MEAN_MOTION_DDOT":0},{"OBJECT_NAME":"ONEWEB-0343","OBJECT_ID":"2021-083Z","EPOCH":"2026-02-05T04:47:36.846528","MEAN_MOTION":13.18687663,"ECCENTRICITY":0.00018767,"INCLINATION":87.9218,"RA_OF_ASC_NODE":1.6586,"ARG_OF_PERICENTER":99.6046,"MEAN_ANOMALY":260.5299,"EPHEMERIS_TYPE":0,"CLASSIFICATION_TYPE":"U","NORAD_CAT_ID":49209,"ELEMENT_SET_NO":999,"REV_AT_EPOCH":21264,"BSTAR":2.389521e-6,"MEAN_MOTION_DOT":1.4e-7,"MEAN_MOTION_DDOT":0},{"OBJECT_NAME":"ONEWEB-0344","OBJECT_ID":"2021-083AA","EPOCH":"2026-02-05T06:09:15.918336","MEAN_MOTION":13.13470687,"ECCENTRICITY":0.00020693,"INCLINATION":87.9014,"RA_OF_ASC_NODE":346.48,"ARG_OF_PERICENTER":88.9442,"MEAN_ANOMALY":271.1924,"EPHEMERIS_TYPE":0,"CLASSIFICATION_TYPE":"U","NORAD_CAT_ID":49210,"ELEMENT_SET_NO":999,"REV_AT_EPOCH":21357,"BSTAR":-0.000288635,"MEAN_MOTION_DOT":-9.3e-7,"MEAN_MOTION_DDOT":0},{"OBJECT_NAME":"ONEWEB-0345","OBJECT_ID":"2021-083AB","EPOCH":"2026-02-05T05:57:04.702176","MEAN_MOTION":13.13468788,"ECCENTRICITY":0.00020772,"INCLINATION":87.9032,"RA_OF_ASC_NODE":346.4448,"ARG_OF_PERICENTER":91.3863,"MEAN_ANOMALY":268.7504,"EPHEMERIS_TYPE":0,"CLASSIFICATION_TYPE":"U","NORAD_CAT_ID":49211,"ELEMENT_SET_NO":999,"REV_AT_EPOCH":21358,"BSTAR":9.5725076e-5,"MEAN_MOTION_DOT":4.8e-7,"MEAN_MOTION_DDOT":0},{"OBJECT_NAME":"ONEWEB-0346","OBJECT_ID":"2021-083AC","EPOCH":"2026-02-05T04:42:52.618176","MEAN_MOTION":13.18686213,"ECCENTRICITY":0.00024092,"INCLINATION":87.9205,"RA_OF_ASC_NODE":1.6704,"ARG_OF_PERICENTER":71.0263,"MEAN_ANOMALY":289.113,"EPHEMERIS_TYPE":0,"CLASSIFICATION_TYPE":"U","NORAD_CAT_ID":49212,"ELEMENT_SET_NO":999,"REV_AT_EPOCH":21258,"BSTAR":-0.00011043572,"MEAN_MOTION_DOT":-3.1e-7,"MEAN_MOTION_DDOT":0},{"OBJECT_NAME":"ONEWEB-0348","OBJECT_ID":"2021-083AD","EPOCH":"2026-02-05T03:29:56.629248","MEAN_MOTION":13.20772713,"ECCENTRICITY":0.00022318,"INCLINATION":87.9217,"RA_OF_ASC_NODE":300.7914,"ARG_OF_PERICENTER":78.8552,"MEAN_ANOMALY":281.2832,"EPHEMERIS_TYPE":0,"CLASSIFICATION_TYPE":"U","NORAD_CAT_ID":49213,"ELEMENT_SET_NO":999,"REV_AT_EPOCH":21938,"BSTAR":0.00022234953,"MEAN_MOTION_DOT":1.03e-6,"MEAN_MOTION_DDOT":0},{"OBJECT_NAME":"ONEWEB-0350","OBJECT_ID":"2021-083AE","EPOCH":"2026-02-05T06:10:28.430400","MEAN_MOTION":13.1347152,"ECCENTRICITY":0.00020905,"INCLINATION":87.9031,"RA_OF_ASC_NODE":346.443,"ARG_OF_PERICENTER":85.1988,"MEAN_ANOMALY":274.938,"EPHEMERIS_TYPE":0,"CLASSIFICATION_TYPE":"U","NORAD_CAT_ID":49214,"ELEMENT_SET_NO":999,"REV_AT_EPOCH":21361,"BSTAR":-0.00045968876,"MEAN_MOTION_DOT":-1.55e-6,"MEAN_MOTION_DDOT":0},{"OBJECT_NAME":"ONEWEB-0351","OBJECT_ID":"2021-083AF","EPOCH":"2026-02-05T03:20:40.243488","MEAN_MOTION":13.2077213,"ECCENTRICITY":0.00012098,"INCLINATION":87.9218,"RA_OF_ASC_NODE":300.7907,"ARG_OF_PERICENTER":110.1188,"MEAN_ANOMALY":250.0075,"EPHEMERIS_TYPE":0,"CLASSIFICATION_TYPE":"U","NORAD_CAT_ID":49215,"ELEMENT_SET_NO":999,"REV_AT_EPOCH":21934,"BSTAR":0.00011655303,"MEAN_MOTION_DOT":6.0e-7,"MEAN_MOTION_DDOT":0},{"OBJECT_NAME":"ONEWEB-0352","OBJECT_ID":"2021-083AG","EPOCH":"2026-02-05T02:03:04.277952","MEAN_MOTION":13.13468729,"ECCENTRICITY":0.00015004,"INCLINATION":87.9021,"RA_OF_ASC_NODE":346.495,"ARG_OF_PERICENTER":91.078,"MEAN_ANOMALY":269.0521,"EPHEMERIS_TYPE":0,"CLASSIFICATION_TYPE":"U","NORAD_CAT_ID":49216,"ELEMENT_SET_NO":999,"REV_AT_EPOCH":21368,"BSTAR":0.00038027521,"MEAN_MOTION_DOT":1.52e-6,"MEAN_MOTION_DDOT":0},{"OBJECT_NAME":"ONEWEB-0354","OBJECT_ID":"2021-083AH","EPOCH":"2026-02-05T03:57:12.271104","MEAN_MOTION":13.20774148,"ECCENTRICITY":0.00019112,"INCLINATION":87.9222,"RA_OF_ASC_NODE":300.7848,"ARG_OF_PERICENTER":81.5991,"MEAN_ANOMALY":278.5359,"EPHEMERIS_TYPE":0,"CLASSIFICATION_TYPE":"U","NORAD_CAT_ID":49217,"ELEMENT_SET_NO":999,"REV_AT_EPOCH":21938,"BSTAR":9.2298684e-5,"MEAN_MOTION_DOT":5.1e-7,"MEAN_MOTION_DDOT":0},{"OBJECT_NAME":"ONEWEB-0355","OBJECT_ID":"2021-083AJ","EPOCH":"2026-02-05T02:44:42.187488","MEAN_MOTION":13.13470579,"ECCENTRICITY":0.00017747,"INCLINATION":87.9013,"RA_OF_ASC_NODE":346.5017,"ARG_OF_PERICENTER":87.7118,"MEAN_ANOMALY":272.4214,"EPHEMERIS_TYPE":0,"CLASSIFICATION_TYPE":"U","NORAD_CAT_ID":49218,"ELEMENT_SET_NO":999,"REV_AT_EPOCH":21356,"BSTAR":-0.00099844888,"MEAN_MOTION_DOT":-3.52e-6,"MEAN_MOTION_DDOT":0},{"OBJECT_NAME":"ONEWEB-0357","OBJECT_ID":"2021-083AK","EPOCH":"2026-02-05T03:52:39.152928","MEAN_MOTION":13.20771058,"ECCENTRICITY":0.00015627,"INCLINATION":87.9217,"RA_OF_ASC_NODE":300.7802,"ARG_OF_PERICENTER":80.7928,"MEAN_ANOMALY":279.3382,"EPHEMERIS_TYPE":0,"CLASSIFICATION_TYPE":"U","NORAD_CAT_ID":49219,"ELEMENT_SET_NO":999,"REV_AT_EPOCH":21938,"BSTAR":-0.00084219376,"MEAN_MOTION_DOT":-3.29e-6,"MEAN_MOTION_DDOT":0},{"OBJECT_NAME":"ONEWEB-0332","OBJECT_ID":"2021-090A","EPOCH":"2026-02-05T00:02:56.019264","MEAN_MOTION":13.14503614,"ECCENTRICITY":0.00014728,"INCLINATION":87.9019,"RA_OF_ASC_NODE":316.0655,"ARG_OF_PERICENTER":76.1753,"MEAN_ANOMALY":283.954,"EPHEMERIS_TYPE":0,"CLASSIFICATION_TYPE":"U","NORAD_CAT_ID":49279,"ELEMENT_SET_NO":999,"REV_AT_EPOCH":21021,"BSTAR":0.00036401963,"MEAN_MOTION_DOT":1.48e-6,"MEAN_MOTION_DDOT":0},{"OBJECT_NAME":"ONEWEB-0347","OBJECT_ID":"2021-090B","EPOCH":"2026-02-05T03:39:01.210176","MEAN_MOTION":13.20770283,"ECCENTRICITY":0.00014759,"INCLINATION":87.9217,"RA_OF_ASC_NODE":300.7911,"ARG_OF_PERICENTER":68.5844,"MEAN_ANOMALY":291.5446,"EPHEMERIS_TYPE":0,"CLASSIFICATION_TYPE":"U","NORAD_CAT_ID":49280,"ELEMENT_SET_NO":999,"REV_AT_EPOCH":21361,"BSTAR":0.00029373865,"MEAN_MOTION_DOT":1.32e-6,"MEAN_MOTION_DDOT":0},{"OBJECT_NAME":"ONEWEB-0349","OBJECT_ID":"2021-090C","EPOCH":"2026-02-05T04:24:30.748608","MEAN_MOTION":13.20774467,"ECCENTRICITY":0.00016297,"INCLINATION":87.922,"RA_OF_ASC_NODE":300.7846,"ARG_OF_PERICENTER":77.296,"MEAN_ANOMALY":282.8355,"EPHEMERIS_TYPE":0,"CLASSIFICATION_TYPE":"U","NORAD_CAT_ID":49281,"ELEMENT_SET_NO":999,"REV_AT_EPOCH":21240,"BSTAR":5.4029846e-5,"MEAN_MOTION_DOT":3.5e-7,"MEAN_MOTION_DDOT":0},{"OBJECT_NAME":"ONEWEB-0353","OBJECT_ID":"2021-090D","EPOCH":"2026-02-05T05:20:21.386400","MEAN_MOTION":13.1450349,"ECCENTRICITY":0.00014392,"INCLINATION":87.903,"RA_OF_ASC_NODE":316.013,"ARG_OF_PERICENTER":72.3719,"MEAN_ANOMALY":287.7567,"EPHEMERIS_TYPE":0,"CLASSIFICATION_TYPE":"U","NORAD_CAT_ID":49282,"ELEMENT_SET_NO":999,"REV_AT_EPOCH":21024,"BSTAR":0.00070488167,"MEAN_MOTION_DOT":2.74e-6,"MEAN_MOTION_DDOT":0}]
